start=new Date('2022-12-17T00:00:00.000Z').valueOf();
sats=[{"TLE_LINE1":"1 52615U 22052T   22350.80102106  .00000007  00000-0  18569-4 0  9990","BSTAR":"0.00001856900000","ECCENTRICITY":"0.00030960","DECAY_DATE":null,"PERIOD":"95.438","INCLINATION":"53.2171","APOAPSIS":"541.887","LAUNCH_DATE":"2022-05-14","MEAN_ELEMENT_THEORY":"SGP4","MEAN_MOTION":"15.08840126","COUNTRY_CODE":"US","SITE":"AFETR","NORAD_CAT_ID":"52615","MEAN_ANOMALY":"322.7580","TIME_SYSTEM":"UTC","RCS_SIZE":"LARGE","EPOCH":"2022-12-16T19:13:28.219584","PERIAPSIS":"537.603","REF_FRAME":"TEME","FILE":"3705029","SEMIMAJOR_AXIS":"6917.880","MEAN_MOTION_DOT":"0.00000007","OBJECT_TYPE":"PAYLOAD","EPHEMERIS_TYPE":"0","RA_OF_ASC_NODE":"176.3554","CLASSIFICATION_TYPE":"U","MEAN_MOTION_DDOT":"0.0000000000000","ELEMENT_SET_NO":"999","GP_ID":"220663900","OBJECT_ID":"2022-052T","TLE_LINE2":"2 52615  53.2171 176.3554 0003096  37.3627 322.7580 15.08840126 32802","REV_AT_EPOCH":"3280","CENTER_NAME":"EARTH","ARG_OF_PERICENTER":"37.3627","OBJECT_NAME":"STARLINK-4011"},{"CLASSIFICATION_TYPE":"U","MEAN_MOTION_DDOT":"0.0000000000000","ELEMENT_SET_NO":"999","RA_OF_ASC_NODE":"161.0149","ARG_OF_PERICENTER":"45.7332","OBJECT_NAME":"STARLINK-4015","OBJECT_ID":"2022-052U","GP_ID":"220664152","TLE_LINE2":"2 52616  53.2159 161.0149 0002977  45.7332 314.3904 15.08845329 33036","REV_AT_EPOCH":"3303","CENTER_NAME":"EARTH","REF_FRAME":"TEME","FILE":"3705029","PERIAPSIS":"537.670","EPHEMERIS_TYPE":"0","SEMIMAJOR_AXIS":"6917.864","OBJECT_TYPE":"PAYLOAD","MEAN_MOTION_DOT":"0.00000037","COUNTRY_CODE":"US","MEAN_MOTION":"15.08845329","NORAD_CAT_ID":"52616","SITE":"AFETR","MEAN_ANOMALY":"314.3904","TIME_SYSTEM":"UTC","RCS_SIZE":"LARGE","EPOCH":"2022-12-16T21:04:05.342304","DECAY_DATE":null,"PERIOD":"95.437","TLE_LINE1":"1 52616U 22052U   22350.87783961  .00000037  00000-0  20437-4 0  9992","BSTAR":"0.00002043700000","ECCENTRICITY":"0.00029770","APOAPSIS":"541.789","MEAN_ELEMENT_THEORY":"SGP4","LAUNCH_DATE":"2022-05-14","INCLINATION":"53.2159"},{"LAUNCH_DATE":"2022-05-14","MEAN_ELEMENT_THEORY":"SGP4","APOAPSIS":"541.509","INCLINATION":"53.2157","PERIOD":"95.438","DECAY_DATE":null,"ECCENTRICITY":"0.00025410","BSTAR":"-0.00002953900000","TLE_LINE1":"1 52617U 22052V   22350.87048749 -.00000759  00000-0 -29539-4 0  9996","EPOCH":"2022-12-16T20:53:30.119136","RCS_SIZE":"LARGE","NORAD_CAT_ID":"52617","SITE":"AFETR","MEAN_ANOMALY":"311.7858","TIME_SYSTEM":"UTC","COUNTRY_CODE":"US","MEAN_MOTION":"15.08838159","EPHEMERIS_TYPE":"0","MEAN_MOTION_DOT":"-0.00000759","OBJECT_TYPE":"PAYLOAD","SEMIMAJOR_AXIS":"6917.886","FILE":"3705029","REF_FRAME":"TEME","PERIAPSIS":"537.993","ARG_OF_PERICENTER":"48.3351","OBJECT_NAME":"STARLINK-3996","CENTER_NAME":"EARTH","REV_AT_EPOCH":"3302","TLE_LINE2":"2 52617  53.2157 161.0390 0002541  48.3351 311.7858 15.08838159 33021","GP_ID":"220664888","OBJECT_ID":"2022-052V","MEAN_MOTION_DDOT":"0.0000000000000","ELEMENT_SET_NO":"999","CLASSIFICATION_TYPE":"U","RA_OF_ASC_NODE":"161.0390"},{"PERIAPSIS":"538.114","FILE":"3705029","REF_FRAME":"TEME","SEMIMAJOR_AXIS":"6917.876","OBJECT_TYPE":"PAYLOAD","MEAN_MOTION_DOT":"0.00004039","EPHEMERIS_TYPE":"0","RA_OF_ASC_NODE":"161.0361","CLASSIFICATION_TYPE":"U","MEAN_MOTION_DDOT":"0.0000000000000","ELEMENT_SET_NO":"999","REV_AT_EPOCH":"3302","CENTER_NAME":"EARTH","OBJECT_ID":"2022-052W","GP_ID":"220663655","TLE_LINE2":"2 52618  53.2148 161.0361 0002351  43.3818 316.7358 15.08841538 33027","OBJECT_NAME":"STARLINK-3983","ARG_OF_PERICENTER":"43.3818","BSTAR":"0.00027170000000","ECCENTRICITY":"0.00023510","TLE_LINE1":"1 52618U 22052W   22350.87417405  .00004039  00000-0  27170-3 0  9997","PERIOD":"95.437","DECAY_DATE":null,"INCLINATION":"53.2148","MEAN_ELEMENT_THEORY":"SGP4","LAUNCH_DATE":"2022-05-14","APOAPSIS":"541.367","MEAN_MOTION":"15.08841538","COUNTRY_CODE":"US","EPOCH":"2022-12-16T20:58:48.637920","SITE":"AFETR","MEAN_ANOMALY":"316.7358","NORAD_CAT_ID":"52618","TIME_SYSTEM":"UTC","RCS_SIZE":"LARGE"},{"ECCENTRICITY":"0.00030060","BSTAR":"0.00001598100000","TLE_LINE1":"1 52619U 22052X   22350.86777817 -.00000034  00000-0  15981-4 0  9993","PERIOD":"95.438","DECAY_DATE":null,"INCLINATION":"53.2172","LAUNCH_DATE":"2022-05-14","MEAN_ELEMENT_THEORY":"SGP4","APOAPSIS":"541.840","MEAN_MOTION":"15.08835047","COUNTRY_CODE":"US","EPOCH":"2022-12-16T20:49:36.033888","RCS_SIZE":"LARGE","NORAD_CAT_ID":"52619","SITE":"AFETR","MEAN_ANOMALY":"313.7700","TIME_SYSTEM":"UTC","PERIAPSIS":"537.681","FILE":"3705029","REF_FRAME":"TEME","MEAN_MOTION_DOT":"-0.00000034","OBJECT_TYPE":"PAYLOAD","SEMIMAJOR_AXIS":"6917.896","EPHEMERIS_TYPE":"0","RA_OF_ASC_NODE":"161.0722","ELEMENT_SET_NO":"999","MEAN_MOTION_DDOT":"0.0000000000000","CLASSIFICATION_TYPE":"U","CENTER_NAME":"EARTH","REV_AT_EPOCH":"3302","TLE_LINE2":"2 52619  53.2172 161.0722 0003006  46.3541 313.7700 15.08835047 33026","GP_ID":"220663400","OBJECT_ID":"2022-052X","OBJECT_NAME":"STARLINK-3741","ARG_OF_PERICENTER":"46.3541"},{"APOAPSIS":"541.875","MEAN_ELEMENT_THEORY":"SGP4","LAUNCH_DATE":"2022-05-14","INCLINATION":"53.2157","DECAY_DATE":null,"PERIOD":"95.437","TLE_LINE1":"1 52620U 22052Y   22350.79735171  .00001144  00000-0  89981-4 0  9997","ECCENTRICITY":"0.00031250","BSTAR":"0.00008998100000","RCS_SIZE":"LARGE","SITE":"AFETR","MEAN_ANOMALY":"318.9263","NORAD_CAT_ID":"52620","TIME_SYSTEM":"UTC","EPOCH":"2022-12-16T19:08:11.187744","COUNTRY_CODE":"US","MEAN_MOTION":"15.08850495","EPHEMERIS_TYPE":"0","OBJECT_TYPE":"PAYLOAD","MEAN_MOTION_DOT":"0.00001144","SEMIMAJOR_AXIS":"6917.848","REF_FRAME":"TEME","FILE":"3705029","PERIAPSIS":"537.551","ARG_OF_PERICENTER":"41.1965","OBJECT_NAME":"STARLINK-3975","TLE_LINE2":"2 52620  53.2157 176.3734 0003125  41.1965 318.9263 15.08850495 32808","OBJECT_ID":"2022-052Y","GP_ID":"220664653","CENTER_NAME":"EARTH","REV_AT_EPOCH":"3280","MEAN_MOTION_DDOT":"0.0000000000000","ELEMENT_SET_NO":"999","CLASSIFICATION_TYPE":"U","RA_OF_ASC_NODE":"176.3734"},{"EPOCH":"2022-12-16T20:37:35.692896","RCS_SIZE":"LARGE","SITE":"AFETR","NORAD_CAT_ID":"52621","MEAN_ANOMALY":"317.3706","TIME_SYSTEM":"UTC","MEAN_MOTION":"15.08838878","COUNTRY_CODE":"US","INCLINATION":"53.2160","MEAN_ELEMENT_THEORY":"SGP4","LAUNCH_DATE":"2022-05-14","APOAPSIS":"541.776","ECCENTRICITY":"0.00029300","BSTAR":"0.00004211600000","TLE_LINE1":"1 52621U 22052Z   22350.85944089  .00000382  00000-0  42116-4 0  9997","PERIOD":"95.438","DECAY_DATE":null,"CENTER_NAME":"EARTH","REV_AT_EPOCH":"3302","TLE_LINE2":"2 52621  53.2160 161.1030 0002930  42.7513 317.3706 15.08838878 33024","GP_ID":"220664388","OBJECT_ID":"2022-052Z","ARG_OF_PERICENTER":"42.7513","OBJECT_NAME":"STARLINK-3984","RA_OF_ASC_NODE":"161.1030","MEAN_MOTION_DDOT":"0.0000000000000","ELEMENT_SET_NO":"999","CLASSIFICATION_TYPE":"U","OBJECT_TYPE":"PAYLOAD","MEAN_MOTION_DOT":"0.00000382","SEMIMAJOR_AXIS":"6917.884","EPHEMERIS_TYPE":"0","PERIAPSIS":"537.722","FILE":"3705029","REF_FRAME":"TEME"},{"SEMIMAJOR_AXIS":"6917.881","MEAN_MOTION_DOT":"-0.00000222","OBJECT_TYPE":"PAYLOAD","EPHEMERIS_TYPE":"0","PERIAPSIS":"538.512","FILE":"3705029","REF_FRAME":"TEME","REV_AT_EPOCH":"3281","CENTER_NAME":"EARTH","OBJECT_ID":"2022-052AA","GP_ID":"220663155","TLE_LINE2":"2 52622  53.2151 176.2476 0001783  49.7423 310.3725 15.08839848 32816","ARG_OF_PERICENTER":"49.7423","OBJECT_NAME":"STARLINK-4008","RA_OF_ASC_NODE":"176.2476","CLASSIFICATION_TYPE":"U","ELEMENT_SET_NO":"999","MEAN_MOTION_DDOT":"0.0000000000000","INCLINATION":"53.2151","LAUNCH_DATE":"2022-05-14","MEAN_ELEMENT_THEORY":"SGP4","APOAPSIS":"540.979","BSTAR":"0.00000413380000","ECCENTRICITY":"0.00017830","TLE_LINE1":"1 52622U 22052AA  22350.82678127 -.00000222  00000-0  41338-5 0  9992","PERIOD":"95.438","DECAY_DATE":null,"EPOCH":"2022-12-16T19:50:33.901728","MEAN_ANOMALY":"310.3725","SITE":"AFETR","NORAD_CAT_ID":"52622","TIME_SYSTEM":"UTC","RCS_SIZE":"LARGE","MEAN_MOTION":"15.08839848","COUNTRY_CODE":"US"},{"REF_FRAME":"TEME","FILE":"3705029","PERIAPSIS":"537.542","EPHEMERIS_TYPE":"0","SEMIMAJOR_AXIS":"6917.859","OBJECT_TYPE":"PAYLOAD","MEAN_MOTION_DOT":"0.00003654","CLASSIFICATION_TYPE":"U","MEAN_MOTION_DDOT":"0.0000000000000","ELEMENT_SET_NO":"999","RA_OF_ASC_NODE":"161.1184","ARG_OF_PERICENTER":"47.0524","OBJECT_NAME":"STARLINK-3986","OBJECT_ID":"2022-052AB","GP_ID":"220663901","TLE_LINE2":"2 52623  53.2145 161.1184 0003154  47.0524 313.0733 15.08847097 33024","REV_AT_EPOCH":"3302","CENTER_NAME":"EARTH","DECAY_DATE":null,"PERIOD":"95.437","TLE_LINE1":"1 52623U 22052AB  22350.85576780  .00003654  00000-0  24752-3 0  9998","BSTAR":"0.00024752000000","ECCENTRICITY":"0.00031540","APOAPSIS":"541.906","LAUNCH_DATE":"2022-05-14","MEAN_ELEMENT_THEORY":"SGP4","INCLINATION":"53.2145","COUNTRY_CODE":"US","MEAN_MOTION":"15.08847097","MEAN_ANOMALY":"313.0733","SITE":"AFETR","NORAD_CAT_ID":"52623","TIME_SYSTEM":"UTC","RCS_SIZE":"LARGE","EPOCH":"2022-12-16T20:32:18.337920"},{"COUNTRY_CODE":"US","MEAN_MOTION":"15.08845033","NORAD_CAT_ID":"52624","SITE":"AFETR","MEAN_ANOMALY":"321.3981","TIME_SYSTEM":"UTC","RCS_SIZE":"LARGE","EPOCH":"2022-12-16T20:48:12.229344","DECAY_DATE":null,"PERIOD":"95.437","TLE_LINE1":"1 52624U 22052AC  22350.86680821  .00003812  00000-0  25744-3 0  9990","BSTAR":"0.00025744000000","ECCENTRICITY":"0.00030210","APOAPSIS":"541.820","MEAN_ELEMENT_THEORY":"SGP4","LAUNCH_DATE":"2022-05-14","INCLINATION":"53.2148","CLASSIFICATION_TYPE":"U","MEAN_MOTION_DDOT":"0.0000000000000","ELEMENT_SET_NO":"999","RA_OF_ASC_NODE":"161.0700","ARG_OF_PERICENTER":"38.7227","OBJECT_NAME":"STARLINK-4009","OBJECT_ID":"2022-052AC","GP_ID":"220664153","TLE_LINE2":"2 52624  53.2148 161.0700 0003021  38.7227 321.3981 15.08845033 33026","REV_AT_EPOCH":"3302","CENTER_NAME":"EARTH","REF_FRAME":"TEME","FILE":"3705029","PERIAPSIS":"537.640","EPHEMERIS_TYPE":"0","SEMIMAJOR_AXIS":"6917.865","OBJECT_TYPE":"PAYLOAD","MEAN_MOTION_DOT":"0.00003812"}];
